{
  "type": "FeatureCollection",
  "features": [
    {
      "type": "Feature",
      "properties": {
        "norad_id": 24946,
        "name": "IRIDIUM 33",
        "group": "iridium-33-debris",
        "lat": 2.2116702656721343,
        "lon": -109.87000154278645,
        "alt_km": 774.2583075705243,
        "timestamp": "2025-12-07T20:38:14.448422+00:00",
        "meta_object_name": "IRIDIUM 33",
        "meta_object_id": "1997-051C",
        "meta_epoch": "2025-12-07T04:45:00.357120",
        "meta_mean_motion": 14.35031214,
        "meta_eccentricity": 0.00064462,
        "meta_inclination": 86.387,
        "meta_ra_of_asc_node": 70.5476,
        "meta_arg_of_pericenter": 221.2361,
        "meta_mean_anomaly": 138.8349,
        "meta_ephemeris_type": 0,
        "meta_classification_type": "U",
        "meta_norad_cat_id": 24946,
        "meta_element_set_no": 999,
        "meta_rev_at_epoch": 47755,
        "meta_bstar": 0.00022392776,
        "meta_mean_motion_dot": 6.57e-06,
        "meta_mean_motion_ddot": 0,
        "tle_line1": "1 24946U 97051C   25341.19792080  .00000657  00000+0  22393-3 0  9997",
        "tle_line2": "2 24946  86.3870  70.5476 0006446 221.2361 138.8349 14.35031214477553"
      },
      "geometry": {
        "type": "Point",
        "coordinates": [
          -109.87000154278645,
          2.2116702656721343
        ]
      }
    },
    {
      "type": "Feature",
      "properties": {
        "norad_id": 33773,
        "name": "IRIDIUM 33 DEB",
        "group": "iridium-33-debris",
        "lat": -9.504281840827533,
        "lon": 62.05372431992596,
        "alt_km": 760.4335355529774,
        "timestamp": "2025-12-07T20:38:14.448447+00:00",
        "meta_object_name": "IRIDIUM 33 DEB",
        "meta_object_id": "1997-051L",
        "meta_epoch": "2025-12-07T05:42:20.091456",
        "meta_mean_motion": 14.43239479,
        "meta_eccentricity": 0.00119779,
        "meta_inclination": 86.4015,
        "meta_ra_of_asc_node": 62.9209,
        "meta_arg_of_pericenter": 162.8584,
        "meta_mean_anomaly": 197.3023,
        "meta_ephemeris_type": 0,
        "meta_classification_type": "U",
        "meta_norad_cat_id": 33773,
        "meta_element_set_no": 999,
        "meta_rev_at_epoch": 88268,
        "meta_bstar": 0.0006316383,
        "meta_mean_motion_dot": 2.145e-05,
        "meta_mean_motion_ddot": 0,
        "tle_line1": "1 33773U 97051L   25341.23773254  .00002145  00000+0  63164-3 0  9997",
        "tle_line2": "2 33773  86.4015  62.9209 0011977 162.8584 197.3023 14.43239479882689"
      },
      "geometry": {
        "type": "Point",
        "coordinates": [
          62.05372431992596,
          -9.504281840827533
        ]
      }
    },
    {
      "type": "Feature",
      "properties": {
        "norad_id": 33775,
        "name": "IRIDIUM 33 DEB",
        "group": "iridium-33-debris",
        "lat": 74.20861934388097,
        "lon": -141.35600432125273,
        "alt_km": 742.5060716397347,
        "timestamp": "2025-12-07T20:38:14.448462+00:00",
        "meta_object_name": "IRIDIUM 33 DEB",
        "meta_object_id": "1997-051N",
        "meta_epoch": "2025-12-06T23:03:51.104160",
        "meta_mean_motion": 14.41448889,
        "meta_eccentricity": 0.0013629,
        "meta_inclination": 86.3642,
        "meta_ra_of_asc_node": 52.0203,
        "meta_arg_of_pericenter": 172.757,
        "meta_mean_anomaly": 311.204,
        "meta_ephemeris_type": 0,
        "meta_classification_type": "U",
        "meta_norad_cat_id": 33775,
        "meta_element_set_no": 999,
        "meta_rev_at_epoch": 88057,
        "meta_bstar": 0.00060366825,
        "meta_mean_motion_dot": 1.979e-05,
        "meta_mean_motion_ddot": 0,
        "tle_line1": "1 33775U 97051N   25340.96100815  .00001979  00000+0  60367-3 0  9991",
        "tle_line2": "2 33775  86.3642  52.0203 0013629 172.7570 311.2040 14.41448889880578"
      },
      "geometry": {
        "type": "Point",
        "coordinates": [
          -141.35600432125273,
          74.20861934388097
        ]
      }
    },
    {
      "type": "Feature",
      "properties": {
        "norad_id": 33776,
        "name": "IRIDIUM 33 DEB",
        "group": "iridium-33-debris",
        "lat": 31.70637785877282,
        "lon": 85.0515361185844,
        "alt_km": 772.4343109582933,
        "timestamp": "2025-12-07T20:38:14.448474+00:00",
        "meta_object_name": "IRIDIUM 33 DEB",
        "meta_object_id": "1997-051P",
        "meta_epoch": "2025-12-07T07:14:17.312064",
        "meta_mean_motion": 14.38219191,
        "meta_eccentricity": 0.00137305,
        "meta_inclination": 86.4036,
        "meta_ra_of_asc_node": 83.0593,
        "meta_arg_of_pericenter": 209.1626,
        "meta_mean_anomaly": 173.9053,
        "meta_ephemeris_type": 0,
        "meta_classification_type": "U",
        "meta_norad_cat_id": 33776,
        "meta_element_set_no": 999,
        "meta_rev_at_epoch": 88004,
        "meta_bstar": 0.00059346933,
        "meta_mean_motion_dot": 1.823e-05,
        "meta_mean_motion_ddot": 0,
        "tle_line1": "1 33776U 97051P   25341.30158926  .00001823  00000+0  59347-3 0  9991",
        "tle_line2": "2 33776  86.4036  83.0593 0013730 209.1626 173.9053 14.38219191880040"
      },
      "geometry": {
        "type": "Point",
        "coordinates": [
          85.0515361185844,
          31.70637785877282
        ]
      }
    },
    {
      "type": "Feature",
      "properties": {
        "norad_id": 33777,
        "name": "IRIDIUM 33 DEB",
        "group": "iridium-33-debris",
        "lat": -54.97618301965781,
        "lon": -137.4890147031344,
        "alt_km": 711.8296007083663,
        "timestamp": "2025-12-07T20:38:14.448486+00:00",
        "meta_object_name": "IRIDIUM 33 DEB",
        "meta_object_id": "1997-051Q",
        "meta_epoch": "2025-12-06T22:06:40.267296",
        "meta_mean_motion": 14.55548471,
        "meta_eccentricity": 0.0005113,
        "meta_inclination": 86.3787,
        "meta_ra_of_asc_node": 37.7345,
        "meta_arg_of_pericenter": 276.5659,
        "meta_mean_anomaly": 83.4966,
        "meta_ephemeris_type": 0,
        "meta_classification_type": "U",
        "meta_norad_cat_id": 33777,
        "meta_element_set_no": 999,
        "meta_rev_at_epoch": 88449,
        "meta_bstar": 0.0014973212,
        "meta_mean_motion_dot": 6.544e-05,
        "meta_mean_motion_ddot": 0,
        "tle_line1": "1 33777U 97051Q   25340.92129939  .00006544  00000+0  14973-2 0  9991",
        "tle_line2": "2 33777  86.3787  37.7345 0005113 276.5659  83.4966 14.55548471884490"
      },
      "geometry": {
        "type": "Point",
        "coordinates": [
          -137.4890147031344,
          -54.97618301965781
        ]
      }
    },
    {
      "type": "Feature",
      "properties": {
        "norad_id": 33850,
        "name": "IRIDIUM 33 DEB",
        "group": "iridium-33-debris",
        "lat": 73.92101596767108,
        "lon": 45.10125044787738,
        "alt_km": 746.1516499823583,
        "timestamp": "2025-12-07T20:38:14.448498+00:00",
        "meta_object_name": "IRIDIUM 33 DEB",
        "meta_object_id": "1997-051T",
        "meta_epoch": "2025-12-07T03:42:45.952128",
        "meta_mean_motion": 14.42129563,
        "meta_eccentricity": 0.00116843,
        "meta_inclination": 86.342,
        "meta_ra_of_asc_node": 32.5811,
        "meta_arg_of_pericenter": 178.2803,
        "meta_mean_anomaly": 197.4222,
        "meta_ephemeris_type": 0,
        "meta_classification_type": "U",
        "meta_norad_cat_id": 33850,
        "meta_element_set_no": 999,
        "meta_rev_at_epoch": 88072,
        "meta_bstar": 0.00063283827,
        "meta_mean_motion_dot": 2.101e-05,
        "meta_mean_motion_ddot": 0,
        "tle_line1": "1 33850U 97051T   25341.15469852  .00002101  00000+0  63284-3 0  9995",
        "tle_line2": "2 33850  86.3420  32.5811 0011684 178.2803 197.4222 14.42129563880722"
      },
      "geometry": {
        "type": "Point",
        "coordinates": [
          45.10125044787738,
          73.92101596767108
        ]
      }
    },
    {
      "type": "Feature",
      "properties": {
        "norad_id": 33853,
        "name": "IRIDIUM 33 DEB",
        "group": "iridium-33-debris",
        "lat": 48.29704344502072,
        "lon": 167.44781327710305,
        "alt_km": 964.5644820636326,
        "timestamp": "2025-12-07T20:38:14.448509+00:00",
        "meta_object_name": "IRIDIUM 33 DEB",
        "meta_object_id": "1997-051W",
        "meta_epoch": "2025-12-06T23:31:10.272864",
        "meta_mean_motion": 13.99007831,
        "meta_eccentricity": 0.02068364,
        "meta_inclination": 85.9998,
        "meta_ra_of_asc_node": 352.3374,
        "meta_arg_of_pericenter": 253.6346,
        "meta_mean_anomaly": 131.0011,
        "meta_ephemeris_type": 0,
        "meta_classification_type": "U",
        "meta_norad_cat_id": 33853,
        "meta_element_set_no": 999,
        "meta_rev_at_epoch": 85265,
        "meta_bstar": 0.0032775714,
        "meta_mean_motion_dot": 5.705e-05,
        "meta_mean_motion_ddot": 0,
        "tle_line1": "1 33853U 97051W   25340.97998001  .00005705  00000+0  32776-2 0  9994",
        "tle_line2": "2 33853  85.9998 352.3374 0206836 253.6346 131.0011 13.99007831852657"
      },
      "geometry": {
        "type": "Point",
        "coordinates": [
          167.44781327710305,
          48.29704344502072
        ]
      }
    }
  ]
}